SAUDISAT 1C (SO-50)     
1 27607U 02058C   26193.91399671  .00000395  00000+0  64575-4 0  9990
2 27607  64.5517  49.3840 0074594 257.6999 101.5749 14.83095930268270
SAUDISAT 2              
1 28371U 04025F   26193.92471530  .00000116  00000+0  36925-4 0  9990
2 28371  98.5519 194.5729 0023951 215.3314 144.6297 14.56697582169491
SAUDISAT 3              
1 31118U 07012B   26194.30341444  .00000108  00000+0  25661-4 0  9991
2 31118  98.1467 144.7230 0015474 140.3519 219.8822 14.71439720 31583
PISAT                   
1 41784U 16059B   26194.23190983  .00000489  00000+0  90723-4 0  9997
2 41784  97.8190 193.5668 0030371 120.8322 239.5879 14.69027646523569
FLYING LAPTOP           
1 42831U 17042G   26194.31386306  .00001880  00000+0  15001-3 0  9990
2 42831  97.4792 348.8620 0019774  38.5380 321.7252 15.01304516490375
SALSAT                  
1 46495U 20068K   26193.91391395  .00004828  00000+0  16824-3 0  9990
2 46495  97.8853 198.5521 0008922 201.3461 158.7407 15.30153171319292
