OBJECT_NAME,OBJECT_ID,EPOCH,MEAN_MOTION,ECCENTRICITY,INCLINATION,RA_OF_ASC_NODE,ARG_OF_PERICENTER,MEAN_ANOMALY,EPHEMERIS_TYPE,CLASSIFICATION_TYPE,NORAD_CAT_ID,ELEMENT_SET_NO,REV_AT_EPOCH,BSTAR,MEAN_MOTION_DOT,MEAN_MOTION_DDOT
SAUDISAT 1C (SO-50),2002-058C,2026-07-12T21:56:09.315744,14.83095930,.00745949,64.5517,49.3840,257.6999,101.5749,0,U,27607,999,26827,.64575255E-4,.395E-5,0
SAUDISAT 2,2004-025F,2026-07-12T22:11:35.401920,14.56697582,.00239519,98.5519,194.5729,215.3314,144.6297,0,U,28371,999,16949,.36924866E-4,.116E-5,0
SAUDISAT 3,2007-012B,2026-07-13T07:16:55.007616,14.71439720,.00154745,98.1467,144.7230,140.3519,219.8822,0,U,31118,999,3158,.25660908E-4,.108E-5,0
PISAT,2016-059B,2026-07-13T05:33:57.009312,14.69027646,.00303713,97.8190,193.5668,120.8322,239.5879,0,U,41784,999,52356,.90723117E-4,.489E-5,0
FLYING LAPTOP,2017-042G,2026-07-13T07:31:57.768384,15.01304516,.00197747,97.4792,348.8620,38.5380,321.7252,0,U,42831,999,49037,.15001336E-3,.188E-4,0
SALSAT,2020-068K,2026-07-12T21:56:02.165280,15.30153171,.00089225,97.8853,198.5521,201.3461,158.7407,0,U,46495,999,31929,.16824237E-3,.4828E-4,0
